[
    {
        "CCSDS_OMM_VERS": "3.0",
        "COMMENT": "GENERATED VIA SPACE-TRACK.ORG API",
        "CREATION_DATE": "2025-05-03T17:28:03",
        "ORIGINATOR": "18 SPCS",
        "OBJECT_NAME": "BEIDOU 3M1",
        "OBJECT_ID": "2017-069A",
        "CENTER_NAME": "EARTH",
        "REF_FRAME": "TEME",
        "TIME_SYSTEM": "UTC",
        "MEAN_ELEMENT_THEORY": "SGP4",
        "EPOCH": "2025-05-02T21:35:25.041696",
        "MEAN_MOTION": "1.86231231",
        "ECCENTRICITY": "0.00120990",
        "INCLINATION": "56.3337",
        "RA_OF_ASC_NODE": "76.6363",
        "ARG_OF_PERICENTER": "312.6002",
        "MEAN_ANOMALY": "47.2661",
        "EPHEMERIS_TYPE": "0",
        "CLASSIFICATION_TYPE": "U",
        "NORAD_CAT_ID": "43001",
        "ELEMENT_SET_NO": "999",
        "REV_AT_EPOCH": "5096",
        "BSTAR": "0.00000000000000",
        "MEAN_MOTION_DOT": "-0.00000014",
        "MEAN_MOTION_DDOT": "0.0000000000000",
        "SEMIMAJOR_AXIS": "27906.165",
        "PERIOD": "773.232",
        "APOAPSIS": "21561.794",
        "PERIAPSIS": "21494.267",
        "OBJECT_TYPE": "PAYLOAD",
        "RCS_SIZE": "LARGE",
        "COUNTRY_CODE": "PRC",
        "LAUNCH_DATE": "2017-11-05",
        "SITE": "XSC",
        "DECAY_DATE": null,
        "FILE": "4717971",
        "GP_ID": "286762399",
        "TLE_LINE0": "0 BEIDOU 3M1",
        "TLE_LINE1": "1 43001U 17069A   25122.89959539 -.00000014  00000-0  00000-0 0  9996",
        "TLE_LINE2": "2 43001  56.3337  76.6363 0012099 312.6002  47.2661  1.86231231 50966"
    }
]